{
  "40258": [
    {
      "epoch": "2026-02-17T13:06:04.534851+00:00",
      "mean_motion": 0.99110324,
      "eccentricity": 0.0003202,
      "inclination": 1.5806,
      "raan": 84.3027,
      "arg_perigee": 203.2005,
      "mean_anomaly": 318.1824,
      "bstar": 0.0,
      "tle_line1": "1 40258U 14058A   26048.54588582  .00000014  00000-0  00000+0 0  9996",
      "tle_line2": "2 40258   1.5806  84.3027 0003202 203.2005 318.1824  0.99110324 39787",
      "norad_id": 40258,
      "object_name": "LUCH (OLYMP)"
    },
    {
      "epoch": "2026-02-18T02:06:40.303009+00:00",
      "mean_motion": 0.99110226,
      "eccentricity": 0.0003217,
      "inclination": 1.582,
      "raan": 84.2939,
      "arg_perigee": 203.3673,
      "mean_anomaly": 151.4411,
      "bstar": 0.0,
      "tle_line1": "1 40258U 14058A   26049.08796647  .00000024  00000-0  00000+0 0  9990",
      "tle_line2": "2 40258   1.5820  84.2939 0003217 203.3673 151.4411  0.99110226 39783",
      "norad_id": 40258,
      "object_name": "LUCH (OLYMP)"
    },
    {
      "epoch": "2026-02-18T15:47:21.024658+00:00",
      "mean_motion": 0.9911011900000001,
      "eccentricity": 0.0003222,
      "inclination": 1.5835,
      "raan": 84.2838,
      "arg_perigee": 203.46880000000002,
      "mean_anomaly": 354.6978,
      "bstar": 0.0,
      "tle_line1": "1 40258U 14058A   26049.65788223  .00000034  00000-0  00000+0 0  9995",
      "tle_line2": "2 40258   1.5835  84.2838 0003222 203.4688 354.6978  0.99110119 39797",
      "norad_id": 40258,
      "object_name": "LUCH (OLYMP)"
    },
    {
      "epoch": "2026-02-19T09:11:58.402191+00:00",
      "mean_motion": 0.99110018,
      "eccentricity": 0.0003228,
      "inclination": 1.5854,
      "raan": 84.2707,
      "arg_perigee": 203.9468,
      "mean_anomaly": 253.06960000000004,
      "bstar": 0.0,
      "tle_line1": "1 40258U 14058A   26050.38331484  .00000046  00000-0  00000+0 0  9993",
      "tle_line2": "2 40258   1.5854  84.2707 0003228 203.9468 253.0696  0.99110018 39809",
      "norad_id": 40258,
      "object_name": "LUCH (OLYMP)"
    },
    {
      "epoch": "2026-02-19T15:44:01.666168+00:00",
      "mean_motion": 0.9910999199999999,
      "eccentricity": 0.0003261,
      "inclination": 1.586,
      "raan": 84.2681,
      "arg_perigee": 203.9339,
      "mean_anomaly": 350.2283,
      "bstar": 0.0,
      "tle_line1": "1 40258U 14058A   26050.65557484  .00000050  00000-0  00000+0 0  9998",
      "tle_line2": "2 40258   1.5860  84.2681 0003261 203.9339 350.2283  0.99109992 39802",
      "norad_id": 40258,
      "object_name": "LUCH (OLYMP)"
    },
    {
      "epoch": "2026-02-20T03:42:22.800385+00:00",
      "mean_motion": 0.9910993799999999,
      "eccentricity": 0.0003273,
      "inclination": 1.5873,
      "raan": 84.25940000000001,
      "arg_perigee": 204.137,
      "mean_anomaly": 168.0272,
      "bstar": 0.0,
      "tle_line1": "1 40258U 14058A   26051.15443056  .00000057  00000-0  00000+0 0  9990",
      "tle_line2": "2 40258   1.5873  84.2594 0003273 204.1370 168.0272  0.99109938 39814",
      "norad_id": 40258,
      "object_name": "LUCH (OLYMP)"
    },
    {
      "epoch": "2026-02-20T13:58:01.284393+00:00",
      "mean_motion": 0.99109933,
      "eccentricity": 0.0003283,
      "inclination": 1.5885,
      "raan": 84.2519,
      "arg_perigee": 204.118,
      "mean_anomaly": 320.59710000000007,
      "bstar": 0.0,
      "tle_line1": "1 40258U 14058A   26051.58195931  .00000062  00000-0  00000+0 0  9999",
      "tle_line2": "2 40258   1.5885  84.2519 0003283 204.1180 320.5971  0.99109933 39810",
      "norad_id": 40258,
      "object_name": "LUCH (OLYMP)"
    },
    {
      "epoch": "2026-02-21T03:30:00.951843+00:00",
      "mean_motion": 0.9910990300000001,
      "eccentricity": 0.0003296,
      "inclination": 1.59,
      "raan": 84.2417,
      "arg_perigee": 204.2759,
      "mean_anomaly": 161.6454,
      "bstar": 0.0,
      "tle_line1": "1 40258U 14058A   26052.14584435  .00000068  00000-0  00000+0 0  9999",
      "tle_line2": "2 40258   1.5900  84.2417 0003296 204.2759 161.6454  0.99109903 39820",
      "norad_id": 40258,
      "object_name": "LUCH (OLYMP)"
    },
    {
      "epoch": "2026-02-21T11:02:22.596863+00:00",
      "mean_motion": 0.99109934,
      "eccentricity": 0.00033,
      "inclination": 1.5909,
      "raan": 84.2352,
      "arg_perigee": 204.3539,
      "mean_anomaly": 273.6597,
      "bstar": 0.0,
      "tle_line1": "1 40258U 14058A   26052.45998376  .00000071  00000-0  00000+0 0  9990",
      "tle_line2": "2 40258   1.5909  84.2352 0003300 204.3539 273.6597  0.99109934 39826",
      "norad_id": 40258,
      "object_name": "LUCH (OLYMP)"
    },
    {
      "epoch": "2026-02-21T13:54:30.159088+00:00",
      "mean_motion": 0.99109952,
      "eccentricity": 0.0003292,
      "inclination": 1.5913,
      "raan": 84.2326,
      "arg_perigee": 204.1754,
      "mean_anomaly": 316.4902,
      "bstar": 0.0,
      "tle_line1": "1 40258U 14058A   26052.57951573  .00000072  00000-0  00000+0 0  9992",
      "tle_line2": "2 40258   1.5913  84.2326 0003292 204.1754 316.4902  0.99109952 39825",
      "norad_id": 40258,
      "object_name": "LUCH (OLYMP)"
    },
    {
      "epoch": "2026-02-22T01:52:49.632690+00:00",
      "mean_motion": 0.99109974,
      "eccentricity": 0.0003308,
      "inclination": 1.5926,
      "raan": 84.2235,
      "arg_perigee": 204.2009,
      "mean_anomaly": 134.4604,
      "bstar": 0.0,
      "tle_line1": "1 40258U 14058A   26053.07835223  .00000075  00000-0  00000+0 0  9994",
      "tle_line2": "2 40258   1.5926  84.2235 0003308 204.2009 134.4604  0.99109974 39821",
      "norad_id": 40258,
      "object_name": "LUCH (OLYMP)"
    },
    {
      "epoch": "2026-02-22T05:17:59.960846+00:00",
      "mean_motion": 0.9910998299999999,
      "eccentricity": 0.000331,
      "inclination": 1.593,
      "raan": 84.2204,
      "arg_perigee": 204.2942,
      "mean_anomaly": 185.2078,
      "bstar": 0.0,
      "tle_line1": "1 40258U 14058A   26053.22083288  .00000076  00000-0  00000+0 0  9998",
      "tle_line2": "2 40258   1.5930  84.2204 0003310 204.2942 185.2078  0.99109983 39831",
      "norad_id": 40258,
      "object_name": "LUCH (OLYMP)"
    },
    {
      "epoch": "2026-02-22T17:16:21.096771+00:00",
      "mean_motion": 0.99110069,
      "eccentricity": 0.000332,
      "inclination": 1.5944,
      "raan": 84.2115,
      "arg_perigee": 204.3093,
      "mean_anomaly": 3.195,
      "bstar": 0.0,
      "tle_line1": "1 40258U 14058A   26053.71968862  .00000078  00000-0  00000+0 0  9994",
      "tle_line2": "2 40258   1.5944  84.2115 0003320 204.3093   3.1950  0.99110069 39830",
      "norad_id": 40258,
      "object_name": "LUCH (OLYMP)"
    },
    {
      "epoch": "2026-02-23T03:32:00.290131+00:00",
      "mean_motion": 0.99110112,
      "eccentricity": 0.0003326,
      "inclination": 1.5956,
      "raan": 84.2039,
      "arg_perigee": 204.4917,
      "mean_anomaly": 155.5668,
      "bstar": 0.0,
      "tle_line1": "1 40258U 14058A   26054.14722558  .00000079  00000-0  00000+0 0  9993",
      "tle_line2": "2 40258   1.5956  84.2039 0003326 204.4917 155.5668  0.99110112 39837",
      "norad_id": 40258,
      "object_name": "LUCH (OLYMP)"
    },
    {
      "epoch": "2026-02-23T08:39:45.781921+00:00",
      "mean_motion": 0.9911015499999999,
      "eccentricity": 0.0003326,
      "inclination": 1.5962,
      "raan": 84.199,
      "arg_perigee": 204.6491,
      "mean_anomaly": 231.67079999999999,
      "bstar": 0.0,
      "tle_line1": "1 40258U 14058A   26054.36094655  .00000079  00000-0  00000+0 0  9997",
      "tle_line2": "2 40258   1.5962  84.1990 0003326 204.6491 231.6708  0.99110155 39847",
      "norad_id": 40258,
      "object_name": "LUCH (OLYMP)"
    },
    {
      "epoch": "2026-02-23T15:30:15.416901+00:00",
      "mean_motion": 0.99110234,
      "eccentricity": 0.0003329,
      "inclination": 1.597,
      "raan": 84.195,
      "arg_perigee": 204.7041,
      "mean_anomaly": 333.3321,
      "bstar": 0.0,
      "tle_line1": "1 40258U 14058A   26054.64601177  .00000079  00000-0  00000+0 0  9991",
      "tle_line2": "2 40258   1.5970  84.1950 0003329 204.7041 333.3321  0.99110234 39846",
      "norad_id": 40258,
      "object_name": "LUCH (OLYMP)"
    },
    {
      "epoch": "2026-02-24T16:16:32.198029+00:00",
      "mean_motion": 0.99110501,
      "eccentricity": 0.000332,
      "inclination": 1.6,
      "raan": 84.1765,
      "arg_perigee": 205.1687,
      "mean_anomaly": 341.1579,
      "bstar": 0.0,
      "tle_line1": "1 40258U 14058A   26055.67815044  .00000076  00000-0  00000+0 0  9992",
      "tle_line2": "2 40258   1.6000  84.1765 0003320 205.1687 341.1579  0.99110501 39857",
      "norad_id": 40258,
      "object_name": "LUCH (OLYMP)"
    },
    {
      "epoch": "2026-02-25T03:25:04.205841+00:00",
      "mean_motion": 0.99110633,
      "eccentricity": 0.000332,
      "inclination": 1.6013,
      "raan": 84.1688,
      "arg_perigee": 205.4321,
      "mean_anomaly": 146.5523,
      "bstar": 0.0,
      "tle_line1": "1 40258U 14058A   26056.14240979  .00000073  00000-0  00000+0 0  9991",
      "tle_line2": "2 40258   1.6013  84.1688 0003320 205.4321 146.5523  0.99110633 39855",
      "norad_id": 40258,
      "object_name": "LUCH (OLYMP)"
    },
    {
      "epoch": "2026-02-25T10:15:32.349579+00:00",
      "mean_motion": 0.99110727,
      "eccentricity": 0.0003316,
      "inclination": 1.6021,
      "raan": 84.1631,
      "arg_perigee": 205.6954,
      "mean_anomaly": 248.00150000000002,
      "bstar": 0.0,
      "tle_line1": "1 40258U 14058A   26056.42745775  .00000071  00000-0  00000+0 0  9994",
      "tle_line2": "2 40258   1.6021  84.1631 0003316 205.6954 248.0015  0.99110727 39860",
      "norad_id": 40258,
      "object_name": "LUCH (OLYMP)"
    }
  ],
  "44878": []
}